[{"OBJECT_NAME":"STARLINK-31763","OBJECT_ID":"2024-080Y","EPOCH":"2026-03-09T22:07:05.385504","MEAN_MOTION":15.27570115,"ECCENTRICITY":0.0001447,"INCLINATION":43.0024,"RA_OF_ASC_NODE":36.9795,"ARG_OF_PERICENTER":258.5515,"MEAN_ANOMALY":101.5174,"EPHEMERIS_TYPE":0,"CLASSIFICATION_TYPE":"U","NORAD_CAT_ID":59623,"ELEMENT_SET_NO":999,"REV_AT_EPOCH":10456,"BSTAR":-1.9263915e-5,"MEAN_MOTION_DOT":-7.92e-6,"MEAN_MOTION_DDOT":0},{"OBJECT_NAME":"LIME","OBJECT_ID":"2025-009AR","EPOCH":"2026-03-09T17:44:15.459648","MEAN_MOTION":15.28703313,"ECCENTRICITY":0.00016347,"INCLINATION":97.3985,"RA_OF_ASC_NODE":151.4831,"ARG_OF_PERICENTER":35.9029,"MEAN_ANOMALY":324.232,"EPHEMERIS_TYPE":0,"CLASSIFICATION_TYPE":"U","NORAD_CAT_ID":62648,"ELEMENT_SET_NO":999,"REV_AT_EPOCH":6376,"BSTAR":0.00047722827,"MEAN_MOTION_DOT":0.00013254,"MEAN_MOTION_DDOT":0}]
